GSAT0220 (GALILEO 24)   
1 43567U 18060D   25062.11176882 -.00000090  00000+0  00000+0 0  9997
2 43567  57.2888 354.4975 0005572 300.6899  59.2630  1.70475060 41141
BEIDOU-3 M13            
1 43622U 18072A   25066.38535975 -.00000004  00000+0  00000+0 0  9992
2 43622  56.2140  78.1124 0008915 301.5564  58.3942  1.86231080 43969
BEIDOU-3 M14            
1 43623U 18072B   25065.17692890 -.00000009  00000+0  00000+0 0  9994
2 43623  56.2147  78.1460 0006366 320.9289  39.0615  1.86231076 43932
GPS BIII-1              
1 43873U 18109A   25066.43211417 -.00000011  00000+0  00000+0 0  9997
2 43873  55.4124 110.6198 0033071 197.0367 226.2928  2.00565688 45719
METEOR-M2 2             
1 44387U 19038A   25067.12887217  .00000221  00000+0  11587-3 0  9992
2 44387  98.8653  43.9384 0000343 344.6468  15.4700 14.24155018294950
GPS BIII-2              
1 44506U 19056A   25065.22116498 -.00000102  00000+0  00000+0 0  9993
2 44506  55.8075 349.7134 0049010 194.2197 337.1341  2.00560350 40680
BEIDOU-3 M24            
1 44542U 19061A   25062.86974023  .00000047  00000+0  00000+0 0  9999
2 44542  54.4199 198.5901 0008110  14.8635 345.1221  1.86228876 37032
BEIDOU-3 M23            
1 44543U 19061B   25065.67177772  .00000019  00000+0  00000+0 0  9997
2 44543  54.4181 198.4640 0004675   8.4216 342.8487  1.86229070 37089
BEIDOU-3 M22            
1 44793U 19078A   25064.32417251 -.00000070  00000+0  00000+0 0  9990
2 44793  54.3526 316.2713 0007167  27.2644 332.8202  1.86231886 35914
BEIDOU-3 M21            
1 44794U 19078B   25066.06613571 -.00000072  00000+0  00000+0 0  9999
2 44794  54.3246 316.1808 0005223  21.9712 338.0959  1.86227629 35957
ELEKTRO-L 3             
1 44903U 19095A   25067.11433907 -.00000111  00000+0  00000+0 0  9994
2 44903   0.0526  85.0686 0001773 240.0321 318.0908  1.00271802 19019
GPS BIII-3              
1 45854U 20041A   25064.81691743 -.00000040  00000+0  00000+0 0  9992
2 45854  56.3400  47.1733 0051046 199.7073 341.7125  2.00568019 34644
COSMOS 2547             
1 46805U 20075A   25066.02754662  .00000040  00000+0  00000+0 0  9990
2 46805  64.5983 208.0720 0006429 232.3950 127.5202  2.13102869 33955
GPS BIII-4              
1 46826U 20078A   25064.84060831  .00000058  00000+0  00000+0 0  9991
2 46826  54.0924 229.7779 0054920 198.7972 330.8735  2.00558631 32114
GSAT0223 (GALILEO 27)   
1 49809U 21116A   25066.41651764 -.00000108  00000+0  00000+0 0  9992
2 49809  57.2777 354.2735 0002152 279.3062 293.1354  1.70475260 20220
GSAT0224 (GALILEO 28)   
1 49810U 21116B   25065.47774226 -.00000104  00000+0  00000+0 0  9994
2 49810  57.2788 354.2974 0001886 295.2065 173.6316  1.70475249 20230
GOES 18                 
1 51850U 22021A   25066.65823204  .00000083  00000+0  00000+0 0  9994
2 51850   0.0364 350.6631 0000245  20.2239 254.6712  1.00273036  1917
COSMOS 2557 (706K)      
1 52984U 22075A   25065.25603442 -.00000075  00000+0  00000+0 0  9999
2 52984  64.5562 330.9275 0012214 285.5659  74.3398  2.13101710 20740
METEOR-M2 3             
1 57166U 23091A   25067.18025775  .00000032  00000+0  33177-4 0  9994
2 57166  98.6745 124.9827 0005096  87.2642 272.9120 14.23981529 88191
COSMOS 2569 (703K)      
1 57517U 23114A   25066.34291182  .00000025  00000+0  00000+0 0  9990
2 57517  65.0424  88.3946 0012816 292.5246  67.3911  2.13104020 12311
METEOR-M2 4             
1 59051U 24039A   25067.15494857  .00000110  00000+0  68882-4 0  9998
2 59051  98.6379  29.0861 0008224  80.5348 279.6759 14.22342358 53012
GSAT0225 (GALILEO 29)   
1 59598U 24079A   25062.96482492  .00000011  00000+0  00000+0 0  9997
2 59598  54.8337 114.2343 0003099 245.2285 113.0483  1.70474840  5296
GSAT0227 (GALILEO 30)   
1 59600U 24079C   25062.56451156  .00000014  00000+0  00000+0 0  9993
2 59600  54.8288 114.2457 0000498 180.8612 179.2208  1.70474832  5345
GSAT0232 (GALILEO 32)   
1 61182U 24167A   25064.52191928  .00000048  00000+0  00000+0 0  9992
2 61182  55.3443 234.1691 0002419 179.1413 137.4735  1.70473719  2889
GSAT0226 (GALILEO 31)   
1 61183U 24167B   25065.29010661  .00000046  00000+0  00000+0 0  9990
2 61183  55.3426 234.1537 0002087 121.3065  59.3144  1.70473843  2876
